{
  "type": "FeatureCollection",
  "features": [
    {
      "type": "Feature",
      "properties": {
        "norad_id": 33924,
        "name": "COSMOS 2251 DEB",
        "group": "cosmos-2251-debris",
        "lat": -73.82276807915869,
        "lon": 156.67130536042632,
        "alt_km": 790.6823504356507,
        "timestamp": "2025-12-23T16:57:12.747826+00:00",
        "meta_object_name": "COSMOS 2251 DEB",
        "meta_object_id": "1993-036ED",
        "meta_epoch": "2025-12-23T01:22:30.954144",
        "meta_mean_motion": 13.50237539,
        "meta_eccentricity": 0.04038408,
        "meta_inclination": 73.9132,
        "meta_ra_of_asc_node": 253.6169,
        "meta_arg_of_pericenter": 287.2487,
        "meta_mean_anomaly": 68.4807,
        "meta_ephemeris_type": 0,
        "meta_classification_type": "U",
        "meta_norad_cat_id": 33924,
        "meta_element_set_no": 999,
        "meta_rev_at_epoch": 82878,
        "meta_bstar": 0.00045567594,
        "meta_mean_motion_dot": 4.59e-06,
        "meta_mean_motion_ddot": 0,
        "tle_line1": "1 33924U 93036ED  25357.05730271  .00000459  00000+0  45568-3 0  9997",
        "tle_line2": "2 33924  73.9132 253.6169 0403840 287.2487  68.4807 13.50237539828781"
      },
      "geometry": {
        "type": "Point",
        "coordinates": [
          156.67130536042632,
          -73.82276807915869
        ]
      }
    },
    {
      "type": "Feature",
      "properties": {
        "norad_id": 33928,
        "name": "COSMOS 2251 DEB",
        "group": "cosmos-2251-debris",
        "lat": 53.77020203209839,
        "lon": 55.092897501081104,
        "alt_km": 730.9609047267095,
        "timestamp": "2025-12-23T16:57:12.747837+00:00",
        "meta_object_name": "COSMOS 2251 DEB",
        "meta_object_id": "1993-036EH",
        "meta_epoch": "2025-12-23T01:45:47.048544",
        "meta_mean_motion": 14.47422954,
        "meta_eccentricity": 0.00619525,
        "meta_inclination": 73.9253,
        "meta_ra_of_asc_node": 33.1089,
        "meta_arg_of_pericenter": 325.1114,
        "meta_mean_anomaly": 34.599,
        "meta_ephemeris_type": 0,
        "meta_classification_type": "U",
        "meta_norad_cat_id": 33928,
        "meta_element_set_no": 999,
        "meta_rev_at_epoch": 88794,
        "meta_bstar": 0.00024293721,
        "meta_mean_motion_dot": 8.83e-06,
        "meta_mean_motion_ddot": 0,
        "tle_line1": "1 33928U 93036EH  25357.07346121  .00000883  00000+0  24294-3 0  9994",
        "tle_line2": "2 33928  73.9253  33.1089 0061952 325.1114  34.5990 14.47422954887948"
      },
      "geometry": {
        "type": "Point",
        "coordinates": [
          55.092897501081104,
          53.77020203209839
        ]
      }
    },
    {
      "type": "Feature",
      "properties": {
        "norad_id": 33932,
        "name": "COSMOS 2251 DEB",
        "group": "cosmos-2251-debris",
        "lat": -31.39465171026702,
        "lon": 125.75300077984488,
        "alt_km": 791.6507137340395,
        "timestamp": "2025-12-23T16:57:12.747847+00:00",
        "meta_object_name": "COSMOS 2251 DEB",
        "meta_object_id": "1993-036EM",
        "meta_epoch": "2025-12-23T05:57:18.721440",
        "meta_mean_motion": 14.38787326,
        "meta_eccentricity": 0.00358554,
        "meta_inclination": 74.0343,
        "meta_ra_of_asc_node": 296.536,
        "meta_arg_of_pericenter": 10.1735,
        "meta_mean_anomaly": 350.0136,
        "meta_ephemeris_type": 0,
        "meta_classification_type": "U",
        "meta_norad_cat_id": 33932,
        "meta_element_set_no": 999,
        "meta_rev_at_epoch": 88149,
        "meta_bstar": 0.00043933034,
        "meta_mean_motion_dot": 1.334e-05,
        "meta_mean_motion_ddot": 0,
        "tle_line1": "1 33932U 93036EM  25357.24813335  .00001334  00000+0  43933-3 0  9997",
        "tle_line2": "2 33932  74.0343 296.5360 0035855  10.1735 350.0136 14.38787326881494"
      },
      "geometry": {
        "type": "Point",
        "coordinates": [
          125.75300077984488,
          -31.39465171026702
        ]
      }
    },
    {
      "type": "Feature",
      "properties": {
        "norad_id": 33933,
        "name": "COSMOS 2251 DEB",
        "group": "cosmos-2251-debris",
        "lat": -31.904016325847206,
        "lon": -129.62163983640548,
        "alt_km": 835.413744339271,
        "timestamp": "2025-12-23T16:57:12.747857+00:00",
        "meta_object_name": "COSMOS 2251 DEB",
        "meta_object_id": "1993-036EN",
        "meta_epoch": "2025-12-23T04:14:28.551840",
        "meta_mean_motion": 14.33504148,
        "meta_eccentricity": 0.00709654,
        "meta_inclination": 74.0889,
        "meta_ra_of_asc_node": 41.1145,
        "meta_arg_of_pericenter": 46.4128,
        "meta_mean_anomaly": 314.2883,
        "meta_ephemeris_type": 0,
        "meta_classification_type": "U",
        "meta_norad_cat_id": 33933,
        "meta_element_set_no": 999,
        "meta_rev_at_epoch": 87934,
        "meta_bstar": 0.0002451141,
        "meta_mean_motion_dot": 6.72e-06,
        "meta_mean_motion_ddot": 0,
        "tle_line1": "1 33933U 93036EN  25357.17671935  .00000672  00000+0  24511-3 0  9993",
        "tle_line2": "2 33933  74.0889  41.1145 0070965  46.4128 314.2883 14.33504148879340"
      },
      "geometry": {
        "type": "Point",
        "coordinates": [
          -129.62163983640548,
          -31.904016325847206
        ]
      }
    },
    {
      "type": "Feature",
      "properties": {
        "norad_id": 33934,
        "name": "COSMOS 2251 DEB",
        "group": "cosmos-2251-debris",
        "lat": -72.10148294591649,
        "lon": -37.92219187096443,
        "alt_km": 697.0985553635655,
        "timestamp": "2025-12-23T16:57:12.747868+00:00",
        "meta_object_name": "COSMOS 2251 DEB",
        "meta_object_id": "1993-036EP",
        "meta_epoch": "2025-12-23T05:53:07.156608",
        "meta_mean_motion": 14.59189557,
        "meta_eccentricity": 0.0015215,
        "meta_inclination": 74.0382,
        "meta_ra_of_asc_node": 80.5553,
        "meta_arg_of_pericenter": 204.2351,
        "meta_mean_anomaly": 155.81,
        "meta_ephemeris_type": 0,
        "meta_classification_type": "U",
        "meta_norad_cat_id": 33934,
        "meta_element_set_no": 999,
        "meta_rev_at_epoch": 88892,
        "meta_bstar": 0.00088437222,
        "meta_mean_motion_dot": 4.149e-05,
        "meta_mean_motion_ddot": 0,
        "tle_line1": "1 33934U 93036EP  25357.24522172  .00004149  00000+0  88437-3 0  9990",
        "tle_line2": "2 33934  74.0382  80.5553 0015215 204.2351 155.8100 14.59189557888924"
      },
      "geometry": {
        "type": "Point",
        "coordinates": [
          -37.92219187096443,
          -72.10148294591649
        ]
      }
    },
    {
      "type": "Feature",
      "properties": {
        "norad_id": 33936,
        "name": "COSMOS 2251 DEB",
        "group": "cosmos-2251-debris",
        "lat": -52.32810646905658,
        "lon": -141.68750694030965,
        "alt_km": 690.9555739756333,
        "timestamp": "2025-12-23T16:57:12.747878+00:00",
        "meta_object_name": "COSMOS 2251 DEB",
        "meta_object_id": "1993-036ER",
        "meta_epoch": "2025-12-23T04:22:18.336288",
        "meta_mean_motion": 14.60330578,
        "meta_eccentricity": 0.00268427,
        "meta_inclination": 74.0177,
        "meta_ra_of_asc_node": 17.5248,
        "meta_arg_of_pericenter": 170.4622,
        "meta_mean_anomaly": 189.706,
        "meta_ephemeris_type": 0,
        "meta_classification_type": "U",
        "meta_norad_cat_id": 33936,
        "meta_element_set_no": 999,
        "meta_rev_at_epoch": 89042,
        "meta_bstar": 0.0006142192,
        "meta_mean_motion_dot": 2.955e-05,
        "meta_mean_motion_ddot": 0,
        "tle_line1": "1 33936U 93036ER  25357.18215667  .00002955  00000+0  61422-3 0  9991",
        "tle_line2": "2 33936  74.0177  17.5248 0026842 170.4622 189.7060 14.60330578890424"
      },
      "geometry": {
        "type": "Point",
        "coordinates": [
          -141.68750694030965,
          -52.32810646905658
        ]
      }
    },
    {
      "type": "Feature",
      "properties": {
        "norad_id": 33938,
        "name": "COSMOS 2251 DEB",
        "group": "cosmos-2251-debris",
        "lat": -72.82470473870299,
        "lon": 118.93081409174627,
        "alt_km": 731.1732218182551,
        "timestamp": "2025-12-23T16:57:12.747889+00:00",
        "meta_object_name": "COSMOS 2251 DEB",
        "meta_object_id": "1993-036ET",
        "meta_epoch": "2025-12-22T19:49:01.910784",
        "meta_mean_motion": 14.46821954,
        "meta_eccentricity": 0.00168025,
        "meta_inclination": 74.0437,
        "meta_ra_of_asc_node": 188.345,
        "meta_arg_of_pericenter": 269.6756,
        "meta_mean_anomaly": 101.5059,
        "meta_ephemeris_type": 0,
        "meta_classification_type": "U",
        "meta_norad_cat_id": 33938,
        "meta_element_set_no": 999,
        "meta_rev_at_epoch": 88546,
        "meta_bstar": 0.00036233464,
        "meta_mean_motion_dot": 1.288e-05,
        "meta_mean_motion_ddot": 0,
        "tle_line1": "1 33938U 93036ET  25356.82571656  .00001288  00000+0  36233-3 0  9996",
        "tle_line2": "2 33938  74.0437 188.3450 0016802 269.6756 101.5059 14.46821954885466"
      },
      "geometry": {
        "type": "Point",
        "coordinates": [
          118.93081409174627,
          -72.82470473870299
        ]
      }
    }
  ]
}